XRISM                   
1 57800U 23137A   23338.84570440  .00005371  00000+0  42800-3 0  9999
2 57800  31.0017 173.6157 0010032  72.3521 287.8209 14.98832293 13335
